[
    {
        "Altitude(m)": 704021.7155401082,
        "Argument of Periapsis(deg)": 0.006834072711976239,
        "Eccentricity": 0.0,
        "Inclination(deg)": 45.0,
        "Latitude(deg)": 28.435383506844204,
        "Longitude(deg)": 71.96065972766657,
        "Mean Anomaly(deg)": 137.8290299884885,
        "RAAN(deg)": 24.99354883512508,
        "Satellite Name": "Constellation 1 118",
        "Satellite Number": 118,
        "Semi-Major Axis(m)": 7083131.272910544,
        "Time(s)": 114
    },
    {
        "Altitude(m)": 704016.2126992953,
        "Argument of Periapsis(deg)": 0.006894020718221645,
        "Eccentricity": 0.0,
        "Inclination(deg)": 45.0,
        "Latitude(deg)": 28.39902644728283,
        "Longitude(deg)": 72.0118916151739,
        "Mean Anomaly(deg)": 137.8897311287384,
        "RAAN(deg)": 24.99349224595951,
        "Satellite Name": "Constellation 1 118",
        "Satellite Number": 118,
        "Semi-Major Axis(m)": 7083131.272910544,
        "Time(s)": 115
    },
    {
        "Altitude(m)": 704010.7159201297,
        "Argument of Periapsis(deg)": 0.006953968724467052,
        "Eccentricity": 0.0,
        "Inclination(deg)": 45.0,
        "Latitude(deg)": 28.362646739497688,
        "Longitude(deg)": 72.06308574665626,
        "Mean Anomaly(deg)": 137.9504322689883,
        "RAAN(deg)": 24.99343565679394,
        "Satellite Name": "Constellation 1 118",
        "Satellite Number": 118,
        "Semi-Major Axis(m)": 7083131.272910544,
        "Time(s)": 116
    },
    {
        "Altitude(m)": 704005.2252415214,
        "Argument of Periapsis(deg)": 0.007013916730712457,
        "Eccentricity": 0.0,
        "Inclination(deg)": 45.0,
        "Latitude(deg)": 28.326244432646007,
        "Longitude(deg)": 72.11424218173866,
        "Mean Anomaly(deg)": 138.0111334092382,
        "RAAN(deg)": 24.99337906762837,
        "Satellite Name": "Constellation 1 118",
        "Satellite Number": 118,
        "Semi-Major Axis(m)": 7083131.272910544,
        "Time(s)": 117
    },
    {
        "Altitude(m)": 703999.7407023702,
        "Argument of Periapsis(deg)": 0.007073864736957864,
        "Eccentricity": 0.0,
        "Inclination(deg)": 45.0,
        "Latitude(deg)": 28.289819575814377,
        "Longitude(deg)": 72.16536098007698,
        "Mean Anomaly(deg)": 138.0718345494881,
        "RAAN(deg)": 24.993322478462797,
        "Satellite Name": "Constellation 1 118",
        "Satellite Number": 118,
        "Semi-Major Axis(m)": 7083131.272910544,
        "Time(s)": 118
    },
    {
        "Altitude(m)": 703994.2623415615,
        "Argument of Periapsis(deg)": 0.0071338127432032696,
        "Eccentricity": 0.0,
        "Inclination(deg)": 45.0,
        "Latitude(deg)": 28.253372218018733,
        "Longitude(deg)": 72.21644203326021,
        "Mean Anomaly(deg)": 138.13253568973803,
        "RAAN(deg)": 24.99326588929723,
        "Satellite Name": "Constellation 1 118",
        "Satellite Number": 118,
        "Semi-Major Axis(m)": 7083131.272910544,
        "Time(s)": 119
    },
    {
        "Altitude(m)": 703988.7901979667,
        "Argument of Periapsis(deg)": 0.007193760749448674,
        "Eccentricity": 0.0,
        "Inclination(deg)": 45.0,
        "Latitude(deg)": 28.216902408204877,
        "Longitude(deg)": 72.26748573719875,
        "Mean Anomaly(deg)": 138.19323682998788,
        "RAAN(deg)": 24.99320930013166,
        "Satellite Name": "Constellation 1 118",
        "Satellite Number": 118,
        "Semi-Major Axis(m)": 7083131.272910544,
        "Time(s)": 120
    },
    {
        "Altitude(m)": 703983.3243104401,
        "Argument of Periapsis(deg)": 0.007253708755694079,
        "Eccentricity": 0.0,
        "Inclination(deg)": 45.0,
        "Latitude(deg)": 28.180410195247877,
        "Longitude(deg)": 72.31849198354067,
        "Mean Anomaly(deg)": 138.25393797023779,
        "RAAN(deg)": 24.993152710966093,
        "Satellite Name": "Constellation 1 118",
        "Satellite Number": 118,
        "Semi-Major Axis(m)": 7083131.272910544,
        "Time(s)": 121
    },
    {
        "Altitude(m)": 703977.8647178281,
        "Argument of Periapsis(deg)": 0.0073136567619394854,
        "Eccentricity": 0.0,
        "Inclination(deg)": 45.0,
        "Latitude(deg)": 28.143895627952602,
        "Longitude(deg)": 72.36946083206,
        "Mean Anomaly(deg)": 138.3146391104877,
        "RAAN(deg)": 24.993096121800523,
        "Satellite Name": "Constellation 1 118",
        "Satellite Number": 118,
        "Semi-Major Axis(m)": 7083131.272910544,
        "Time(s)": 122
    },
    {
        "Altitude(m)": 703972.4114589567,
        "Argument of Periapsis(deg)": 0.0073736047681848904,
        "Eccentricity": 0.0,
        "Inclination(deg)": 45.0,
        "Latitude(deg)": 28.107358755053568,
        "Longitude(deg)": 72.42039234255894,
        "Mean Anomaly(deg)": 138.3753402507376,
        "RAAN(deg)": 24.993039532634953,
        "Satellite Name": "Constellation 1 118",
        "Satellite Number": 118,
        "Semi-Major Axis(m)": 7083131.272910544,
        "Time(s)": 123
    },
    {
        "Altitude(m)": 703966.9645726393,
        "Argument of Periapsis(deg)": 0.007433552774430298,
        "Eccentricity": 0.0,
        "Inclination(deg)": 45.0,
        "Latitude(deg)": 28.07079962521518,
        "Longitude(deg)": 72.47128657486748,
        "Mean Anomaly(deg)": 138.4360413909875,
        "RAAN(deg)": 24.992982943469382,
        "Satellite Name": "Constellation 1 118",
        "Satellite Number": 118,
        "Semi-Major Axis(m)": 7083131.272910544,
        "Time(s)": 124
    },
    {
        "Altitude(m)": 703961.5240976743,
        "Argument of Periapsis(deg)": 0.007493500780675703,
        "Eccentricity": 0.0,
        "Inclination(deg)": 45.0,
        "Latitude(deg)": 28.034218287031624,
        "Longitude(deg)": 72.52214358884281,
        "Mean Anomaly(deg)": 138.4967425312374,
        "RAAN(deg)": 24.992926354303815,
        "Satellite Name": "Constellation 1 118",
        "Satellite Number": 118,
        "Semi-Major Axis(m)": 7083131.272910544,
        "Time(s)": 125
    },
    {
        "Altitude(m)": 703956.0900728457,
        "Argument of Periapsis(deg)": 0.007553448786921108,
        "Eccentricity": 0.0,
        "Inclination(deg)": 45.0,
        "Latitude(deg)": 27.99761478902695,
        "Longitude(deg)": 72.57296327627158,
        "Mean Anomaly(deg)": 138.55744367148728,
        "RAAN(deg)": 24.992869765138245,
        "Satellite Name": "Constellation 1 118",
        "Satellite Number": 118,
        "Semi-Major Axis(m)": 7083131.272910544,
        "Time(s)": 126
    },
    {
        "Altitude(m)": 703950.6625369199,
        "Argument of Periapsis(deg)": 0.007613396793166514,
        "Eccentricity": 0.0,
        "Inclination(deg)": 45.0,
        "Latitude(deg)": 27.960989179655506,
        "Longitude(deg)": 72.62374603325836,
        "Mean Anomaly(deg)": 138.61814481173715,
        "RAAN(deg)": 24.992813175972678,
        "Satellite Name": "Constellation 1 118",
        "Satellite Number": 118,
        "Semi-Major Axis(m)": 7083131.272910544,
        "Time(s)": 127
    },
    {
        "Altitude(m)": 703945.2415286499,
        "Argument of Periapsis(deg)": 0.007673344799411918,
        "Eccentricity": 0.0,
        "Inclination(deg)": 45.0,
        "Latitude(deg)": 27.924341507301456,
        "Longitude(deg)": 72.67449175164161,
        "Mean Anomaly(deg)": 138.67884595198709,
        "RAAN(deg)": 24.992756586807104,
        "Satellite Name": "Constellation 1 118",
        "Satellite Number": 118,
        "Semi-Major Axis(m)": 7083131.272910544,
        "Time(s)": 128
    },
    {
        "Altitude(m)": 703939.827086777,
        "Argument of Periapsis(deg)": 0.007733292805657325,
        "Eccentricity": 0.0,
        "Inclination(deg)": 45.0,
        "Latitude(deg)": 27.8876718202791,
        "Longitude(deg)": 72.72520049138241,
        "Mean Anomaly(deg)": 138.739547092237,
        "RAAN(deg)": 24.992699997641534,
        "Satellite Name": "Constellation 1 118",
        "Satellite Number": 118,
        "Semi-Major Axis(m)": 7083131.272910544,
        "Time(s)": 129
    },
    {
        "Altitude(m)": 703934.4192500148,
        "Argument of Periapsis(deg)": 0.00779324081190273,
        "Eccentricity": 0.0,
        "Inclination(deg)": 45.0,
        "Latitude(deg)": 27.85098016683309,
        "Longitude(deg)": 72.77587231246639,
        "Mean Anomaly(deg)": 138.8002482324869,
        "RAAN(deg)": 24.992643408475967,
        "Satellite Name": "Constellation 1 118",
        "Satellite Number": 118,
        "Semi-Major Axis(m)": 7083131.272910544,
        "Time(s)": 130
    },
    {
        "Altitude(m)": 703929.0180570729,
        "Argument of Periapsis(deg)": 0.007853188818148135,
        "Eccentricity": 0.0,
        "Inclination(deg)": 45.0,
        "Latitude(deg)": 27.814266595138175,
        "Longitude(deg)": 72.82650727490348,
        "Mean Anomaly(deg)": 138.8609493727368,
        "RAAN(deg)": 24.992586819310397,
        "Satellite Name": "Constellation 1 118",
        "Satellite Number": 118,
        "Semi-Major Axis(m)": 7083131.272910544,
        "Time(s)": 131
    },
    {
        "Altitude(m)": 703923.6235466383,
        "Argument of Periapsis(deg)": 0.007913136824393542,
        "Eccentricity": 0.0,
        "Inclination(deg)": 45.0,
        "Latitude(deg)": 27.777531153299613,
        "Longitude(deg)": 72.87710543872723,
        "Mean Anomaly(deg)": 138.92165051298667,
        "RAAN(deg)": 24.99253023014483,
        "Satellite Name": "Constellation 1 118",
        "Satellite Number": 118,
        "Semi-Major Axis(m)": 7083131.272910544,
        "Time(s)": 132
    }
]